QPS-SAR-12 (KUSHINADA-I)
1 65116U 25169A   26068.45165888  .00007038  00000+0  57220-3 0  9995
2 65116  42.0102 204.8332 0007793 277.3009  82.6931 14.99881586 32436
STARLINK-36284          
1 67194U 25304C   26068.63330242  .00017567  00000+0  14763-2 0  9994
2 67194  70.0027 174.7092 0003871 265.9749  94.0967 14.98331560 13870
